     2.10           G: GLONASS NAV DATA                     RINEX VERSION / TYPE
teqc  2015Jun23                         20220729 01:34:42UTCPGM / RUN BY / DATE
Linux 2.4.21-27.ELsmp|Opteron|gcc -static|Linux x86_64|=+   COMMENT
  2022     7    27    0.000000000000D+00                    CORR TO SYSTEM TIME
                                                            END OF HEADER
 9 22  7 28  0 15  0.0 6.810668855906D-05 1.818989403546D-12 0.000000000000D+00
    4.601470703125D+03-8.870077133179D-01-1.862645149231D-09 0.000000000000D+00
    1.557672851562D+04 2.537745475769D+00-9.313225746155D-10-2.000000000000D+00
    1.966266210938D+04-1.812005996704D+00-9.313225746155D-10 0.000000000000D+00
 4 22  7 28  0 15  0.0 1.520691439509D-04 9.094947017729D-13 0.000000000000D+00
   -2.156915966797D+04-1.455522537231D+00-1.862645149231D-09 0.000000000000D+00
    8.178583007812D+03 3.744401931763D-01-0.000000000000D+00 6.000000000000D+00
   -1.087218164062D+04 3.160461425781D+00 2.793967723846D-09 0.000000000000D+00
 5 22  7 28  0 15  0.0 9.693298488855D-05 9.094947017729D-13 0.000000000000D+00
   -6.590926757812D+03-2.968493461609D+00 9.313225746155D-10 0.000000000000D+00
    1.123676025391D+04 4.740762710571D-01-9.313225746155D-10 1.000000000000D+00
   -2.192496435547D+04 1.132660865784D+00 1.862645149231D-09 0.000000000000D+00
15 22  7 28  0 15  0.0 9.448826313019D-05-0.000000000000D+00 0.000000000000D+00
   -1.330882617188D+04 7.208309173584D-01-9.313225746155D-10 0.000000000000D+00
    1.808246826172D+04-1.498102188110D+00-9.313225746155D-10 0.000000000000D+00
   -1.207387939453D+04-3.032208442688D+00 1.862645149231D-09 0.000000000000D+00
19 22  7 28  0 15  0.0-1.978734508157D-04-9.094947017729D-13 0.000000000000D+00
    1.846936523438D+03-1.419225692749D+00-1.862645149231D-09 0.000000000000D+00
    1.687372070312D+04-2.198847770691D+00-9.313225746155D-10 3.000000000000D+00
    1.903774511719D+04 2.084742546082D+00-9.313225746155D-10 0.000000000000D+00
20 22  7 28  0 15  0.0-7.542409002781D-05-9.094947017729D-13 0.000000000000D+00
    1.452028515625D+04 1.074905395508D-01 9.313225746155D-10 0.000000000000D+00
    2.091459619141D+04-2.856645584106D-01-1.862645149231D-09 2.000000000000D+00
    1.224383300781D+03 3.611314773560D+00-9.313225746155D-10 0.000000000000D+00
15 22  7 28  0 45  0.0 9.448733180761D-05-0.000000000000D+00 1.800000000000D+03
   -1.203528857422D+04 6.544771194458D-01-0.000000000000D+00 0.000000000000D+00
    1.469781054688D+04-2.240688323975D+00-9.313225746155D-10 0.000000000000D+00
   -1.699347509766D+04-2.398396492004D+00 2.793967723846D-09 0.000000000000D+00
 4 22  7 28  0 45  0.0 1.520710065961D-04 9.094947017729D-13 1.800000000000D+03
   -2.342059814453D+04-5.920944213867D-01-3.725290298462D-09 0.000000000000D+00
    8.874676757812D+03 3.572301864624D-01 0.000000000000D+00 6.000000000000D+00
   -4.836306152344D+03 3.502454757690D+00 2.793967723846D-09 0.000000000000D+00
 5 22  7 28  0 45  0.0 9.693391621113D-05 9.094947017729D-13 1.800000000000D+03
   -1.154152539062D+04-2.490070343018D+00-0.000000000000D+00 0.000000000000D+00
    1.240801562500D+04 7.997684478760D-01-9.313225746155D-10 1.000000000000D+00
   -1.906469970703D+04 2.024709701538D+00 2.793967723846D-09 0.000000000000D+00
19 22  7 28  0 45  0.0-1.978790387511D-04-9.094947017729D-13 1.800000000000D+03
   -1.263964843750D+03-2.021882057190D+00-3.725290298462D-09 0.000000000000D+00
    1.282970458984D+04-2.245331764221D+00-0.000000000000D+00 3.000000000000D+00
    2.200567724609D+04 1.191514015198D+00-9.313225746155D-10 0.000000000000D+00
20 22  7 28  0 45  0.0-7.542595267296D-05-9.094947017729D-13 1.800000000000D+03
    1.415181494141D+04-5.427417755127D-01-0.000000000000D+00 0.000000000000D+00
    1.979619287109D+04-9.221334457397D-01-1.862645149231D-09 2.000000000000D+00
    7.593140625000D+03 3.419036865234D+00-9.313225746155D-10 0.000000000000D+00
 9 22  7 28  0 45  0.0 6.811041384935D-05 1.818989403546D-12 1.920000000000D+03
    3.450202636719D+03-4.046373367310D-01-1.862645149231D-09 0.000000000000D+00
    1.979785986328D+04 2.107263565063D+00-1.862645149231D-09-2.000000000000D+00
    1.568237890625D+04-2.581978797913D+00-0.000000000000D+00 0.000000000000D+00
 9 22  7 28  1 15  0.0 6.811320781708D-05 1.818989403546D-12 3.600000000000D+03
    3.071640136719D+03-4.334545135498D-02-2.793967723846D-09 0.000000000000D+00
    2.301767773438D+04 1.436072349548D+00-9.313225746155D-10-2.000000000000D+00
    1.048726269531D+04-3.152921676636D+00 0.000000000000D+00 0.000000000000D+00
 5 22  7 28  1 15  0.0 9.693484753370D-05 9.094947017729D-13 3.600000000000D+03
   -1.542854150391D+04-1.801617622375D+00-9.313225746155D-10 0.000000000000D+00
    1.399382470703D+04 9.231500625610D-01-0.000000000000D+00 1.000000000000D+00
   -1.473038037109D+04 2.759887695312D+00 2.793967723846D-09 0.000000000000D+00
 4 22  7 28  1 15  0.0 1.520738005638D-04 9.094947017729D-13 3.600000000000D+03
   -2.370212744141D+04 2.690448760986D-01-3.725290298462D-09 0.000000000000D+00
    9.314259277344D+03 9.097957611084D-02 1.862645149231D-09 6.000000000000D+00
    1.573630859375D+03 3.573451995850D+00 2.793967723846D-09 0.000000000000D+00
15 22  7 28  1 15  0.0 9.448640048504D-05-9.094947017729D-13 3.600000000000D+03
   -1.108051318359D+04 3.763933181763D-01 0.000000000000D+00 0.000000000000D+00
    1.012541552734D+04-2.801784515381D+00-0.000000000000D+00 0.000000000000D+00
   -2.059615966797D+04-1.578497886658D+00 2.793967723846D-09 0.000000000000D+00
20 22  7 28  1 15  0.0-7.542781531811D-05-9.094947017729D-13 3.600000000000D+03
    1.250417285156D+04-1.295983314514D+00-9.313225746155D-10 0.000000000000D+00
    1.774071875000D+04-1.317030906677D+00-1.862645149231D-09 2.000000000000D+00
    1.337361962891D+04 2.961959838867D+00-9.313225746155D-10 0.000000000000D+00
10 22  7 28  1 15  0.0-8.458923548460D-05-0.000000000000D+00 5.310000000000D+03
    9.198448730469D+03-2.275590896606D-01-1.862645149231D-09 0.000000000000D+00
    1.068350683594D+04 2.902248382568D+00-9.313225746155D-10-7.000000000000D+00
    2.127401074219D+04-1.352579116821D+00-1.862645149231D-09 0.000000000000D+00
 9 22  7 28  1 45  0.0 6.811693310738D-05 1.818989403546D-12 5.400000000000D+03
    3.176015625000D+03 1.222972869873D-01-2.793967723846D-09 0.000000000000D+00
    2.487226513672D+04 6.066360473633D-01-9.313225746155D-10-2.000000000000D+00
    4.478656738281D+03-3.479843139648D+00 9.313225746155D-10 0.000000000000D+00
 5 22  7 28  1 45  0.0 9.693671017885D-05 9.094947017729D-13 5.400000000000D+03
   -1.796212451172D+04-1.004924774170D+00-2.793967723846D-09 0.000000000000D+00
    1.557940283203D+04 7.947692871094D-01 9.313225746155D-10 1.000000000000D+00
   -9.257565429688D+03 3.281522750854D+00 2.793967723846D-09 0.000000000000D+00
 4 22  7 28  1 45  0.0 1.520756632090D-04 9.094947017729D-13 5.400000000000D+03
   -2.252210742188D+04 1.014112472534D+00-3.725290298462D-09 0.000000000000D+00
    9.071035156250D+03-3.925132751465D-01 2.793967723846D-09 6.000000000000D+00
    7.862051269531D+03 3.368384361267D+00 1.862645149231D-09 0.000000000000D+00
10 22  7 28  1 45  0.0-8.459016680717D-05-0.000000000000D+00 5.400000000000D+03
    9.169640625000D+03 1.765403747559D-01-2.793967723846D-09 0.000000000000D+00
    1.555359130859D+04 2.464015960693D+00-9.313225746155D-10-7.000000000000D+00
    1.804998974609D+04-2.206317901611D+00-9.313225746155D-10 0.000000000000D+00
20 22  7 28  1 45  0.0-7.542967796326D-05-9.094947017729D-13 5.400000000000D+03
    9.493044921875D+03-2.037857055664D+00-2.793967723846D-09 0.000000000000D+00
    1.522249218750D+04-1.434190750122D+00-0.000000000000D+00 2.000000000000D+00
    1.811835791016D+04 2.275746345520D+00-9.313225746155D-10 0.000000000000D+00
 6 22  7 28  1 45  0.0-6.140489131212D-05-9.094947017729D-13 5.460000000000D+03
    1.137841796875D+02-2.543154716492D+00 9.313225746155D-10 0.000000000000D+00
    1.255435546875D+04 1.662712097168D+00-1.862645149231D-09-4.000000000000D+00
   -2.221852685547D+04 9.249620437622D-01 1.862645149231D-09 0.000000000000D+00
 9 22  7 28  2 15  0.0 6.811972707510D-05 1.818989403546D-12 7.200000000000D+03
    3.371033203125D+03 5.462646484375D-02-2.793967723846D-09 0.000000000000D+00
    2.517086181641D+04-2.737150192261D-01-9.313225746155D-10-2.000000000000D+00
   -1.877702148438D+03-3.536697387695D+00 9.313225746155D-10 0.000000000000D+00
 6 22  7 28  2 15  0.0-6.140861660242D-05-9.094947017729D-13 7.200000000000D+03
   -4.015622558594D+03-2.016276359558D+00-0.000000000000D+00 0.000000000000D+00
    1.569957714844D+04 1.791227340698D+00-9.313225746155D-10-4.000000000000D+00
   -1.971756494141D+04 1.835849761963D+00 2.793967723846D-09 0.000000000000D+00
 4 22  7 28  2 15  0.0 1.520784571767D-04 1.818989403546D-12 7.200000000000D+03
   -2.017738623047D+04 1.550284385681D+00-3.725290298462D-09 0.000000000000D+00
    7.813568847656D+03-1.021108627319D+00 3.725290298462D-09 6.000000000000D+00
    1.354351367188D+04 2.903487205505D+00 1.862645149231D-09 0.000000000000D+00
 5 22  7 28  2 15  0.0 9.693764150143D-05 9.094947017729D-13 7.200000000000D+03
   -1.905074072266D+04-2.155103683472D-01-2.793967723846D-09 0.000000000000D+00
    1.669969873047D+04 4.091062545776D-01 1.862645149231D-09 1.000000000000D+00
   -3.069492675781D+03 3.549494743347D+00 2.793967723846D-09 0.000000000000D+00
10 22  7 28  2 15  0.0-8.459016680717D-05 0.000000000000D+00 7.200000000000D+03
    9.739230468750D+03 4.236831665039D-01-2.793967723846D-09 0.000000000000D+00
    1.941269042969D+04 1.791514396667D+00-0.000000000000D+00-7.000000000000D+00
    1.343401904297D+04-2.889250755310D+00-0.000000000000D+00 0.000000000000D+00
 9 22  7 28  2 45  0.0 6.812158972025D-05 1.818989403546D-12 9.000000000000D+03
    3.235354492188D+03-2.404508590698D-01-1.862645149231D-09 0.000000000000D+00
    2.392553906250D+04-1.090028762817D+00-0.000000000000D+00-2.000000000000D+00
   -8.088076660156D+03-3.318655014038D+00 1.862645149231D-09 0.000000000000D+00
